$$SOE
2461288.500000000, A.D. 2026-Sep-05 00:00:00.0000, 4.604904008414673E+08, 2.688909937469447E+08, 5.516151604484497E+07,
2461295.500000000, A.D. 2026-Sep-12 00:00:00.0000, 4.559121165790550E+08, 2.770742410909056E+08, 5.411084068728758E+07,
2461302.500000000, A.D. 2026-Sep-19 00:00:00.0000, 4.511903072398735E+08, 2.851702269762665E+08, 5.304312666784826E+07,
2461309.500000000, A.D. 2026-Sep-26 00:00:00.0000, 4.463265718128493E+08, 2.931764728471794E+08, 5.195872371516135E+07,
2461316.500000000, A.D. 2026-Oct-03 00:00:00.0000, 4.413225495186543E+08, 3.010905305153775E+08, 5.085798594352512E+07,
2461323.500000000, A.D. 2026-Oct-10 00:00:00.0000, 4.361799192262973E+08, 3.089099828585805E+08, 4.974127175364061E+07,
2461330.500000000, A.D. 2026-Oct-17 00:00:00.0000, 4.309003988318739E+08, 3.166324444349402E+08, 4.860894372977276E+07,
2461337.500000000, A.D. 2026-Oct-24 00:00:00.0000, 4.254857446239933E+08, 3.242555619904823E+08, 4.746136852923352E+07,
2461344.500000000, A.D. 2026-Oct-31 00:00:00.0000, 4.199377507344114E+08, 3.317770147923021E+08, 4.629891674962056E+07,
2461351.500000000, A.D. 2026-Nov-07 00:00:00.0000, 4.142582490124098E+08, 3.391945148611869E+08, 4.512196274873279E+07,
2461358.500000000, A.D. 2026-Nov-14 00:00:00.0000, 4.084491095230330E+08, 3.465058079906873E+08, 4.393088447124468E+07,
2461365.500000000, A.D. 2026-Nov-21 00:00:00.0000, 4.025122398558460E+08, 3.537086762344317E+08, 4.272606350411990E+07,
2461372.500000000, A.D. 2026-Nov-28 00:00:00.0000, 3.964495822453442E+08, 3.608009388555304E+08, 4.150788520711574E+07,
2461379.500000000, A.D. 2026-Dec-05 00:00:00.0000, 3.902631121245096E+08, 3.677804510838917E+08, 4.027673853360242E+07,
2461386.500000000, A.D. 2026-Dec-12 00:00:00.0000, 3.839548382780188E+08, 3.746451037925267E+08, 3.903301578120251E+07,
2461393.500000000, A.D. 2026-Dec-19 00:00:00.0000, 3.775268027082410E+08, 3.813928240990418E+08, 3.777711244612147E+07,
2461400.500000000, A.D. 2026-Dec-26 00:00:00.0000, 3.709810800719953E+08, 3.880215760242623E+08, 3.650942712353715E+07,
2461407.500000000, A.D. 2027-Jan-02 00:00:00.0000, 3.643197769639968E+08, 3.945293610168825E+08, 3.523036141330090E+07,
2461414.500000000, A.D. 2027-Jan-09 00:00:00.0000, 3.575450311634599E+08, 4.009142183639857E+08, 3.394031982194084E+07,
2461421.500000000, A.D. 2027-Jan-16 00:00:00.0000, 3.506590108781138E+08, 4.071742254959305E+08, 3.263970965846625E+07,
2461428.500000000, A.D. 2027-Jan-23 00:00:00.0000, 3.436639140301067E+08, 4.133074981457578E+08, 3.132894091650280E+07,
2461435.500000000, A.D. 2027-Jan-30 00:00:00.0000, 3.365619677698832E+08, 4.193121903153291E+08, 3.000842612159652E+07,
2461442.500000000, A.D. 2027-Feb-06 00:00:00.0000, 3.293554286413814E+08, 4.251864943883425E+08, 2.867858013242719E+07,
2461449.500000000, A.D. 2027-Feb-13 00:00:00.0000, 3.220465829369811E+08, 4.309286426093838E+08, 2.733982003758341E+07,
2461456.500000000, A.D. 2027-Feb-20 00:00:00.0000, 3.146377448760837E+08, 4.365369091369711E+08, 2.599256529976934E+07,
2461463.500000000, A.D. 2027-Feb-27 00:00:00.0000, 3.071312540014992E+08, 4.420096094578189E+08, 2.463723775677353E+07,
2461470.500000000, A.D. 2027-Mar-06 00:00:00.0000, 2.995294748122880E+08, 4.473450990860596E+08, 2.327426135940647E+07,
2461477.500000000, A.D. 2027-Mar-13 00:00:00.0000, 2.918347970329338E+08, 4.525417735963462E+08, 2.190406196033996E+07,
2461484.500000000, A.D. 2027-Mar-20 00:00:00.0000, 2.840496353888666E+08, 4.575980691558061E+08, 2.052706718900543E+07,
2461491.500000000, A.D. 2027-Mar-27 00:00:00.0000, 2.761764290901011E+08, 4.625124630060272E+08, 1.914370634904844E+07,
2461498.500000000, A.D. 2027-Apr-03 00:00:00.0000, 2.682176412258819E+08, 4.672834738475224E+08, 1.775441031574455E+07,
2461505.500000000, A.D. 2027-Apr-10 00:00:00.0000, 2.601757581315956E+08, 4.719096621498692E+08, 1.635961142958364E+07,
2461512.500000000, A.D. 2027-Apr-17 00:00:00.0000, 2.520532887500153E+08, 4.763896303733279E+08, 1.495974338279516E+07,
2461519.500000000, A.D. 2027-Apr-24 00:00:00.0000, 2.438527640660428E+08, 4.807220230399394E+08, 1.355524108646172E+07,
2461526.500000000, A.D. 2027-May-01 00:00:00.0000, 2.355767369145788E+08, 4.849055266822712E+08, 1.214654049303335E+07,
2461533.500000000, A.D. 2027-May-08 00:00:00.0000, 2.272277824692552E+08, 4.889388704187035E+08, 1.073407840720779E+07,
2461540.500000000, A.D. 2027-May-15 00:00:00.0000, 2.188084979156049E+08, 4.928208281083158E+08, 9.318292500308067E+06,
2461547.500000000, A.D. 2027-May-22 00:00:00.0000, 2.103214997439488E+08, 4.965502194927680E+08, 7.899621459845901E+06,
2461554.500000000, A.D. 2027-May-29 00:00:00.0000, 2.017694220172110E+08, 5.001259088581481E+08, 6.478504846717983E+06,
2461561.500000000, A.D. 2027-Jun-05 00:00:00.0000, 1.931549164995570E+08, 5.035468043498541E+08, 5.055382834849715E+06,
2461568.500000000, A.D. 2027-Jun-12 00:00:00.0000, 1.844806526388955E+08, 5.068118583719146E+08, 3.630696052689940E+06,
2461575.500000000, A.D. 2027-Jun-19 00:00:00.0000, 1.757493170722123E+08, 5.099200681353406E+08, 2.204885480605841E+06,
2461582.500000000, A.D. 2027-Jun-26 00:00:00.0000, 1.669636129332886E+08, 5.128704760939042E+08, 7.783923573337793E+05,
2461589.500000000, A.D. 2027-Jul-03 00:00:00.0000, 1.581262590950275E+08, 5.156621702750515E+08, -6.483419157899022E+05,
2461596.500000000, A.D. 2027-Jul-10 00:00:00.0000, 1.492399893829809E+08, 5.182942845138368E+08, -2.074875875257641E+06,
2461603.500000000, A.D. 2027-Jul-17 00:00:00.0000, 1.403075517957470E+08, 5.207659985503559E+08, -3.500768106682092E+06,
2461610.500000000, A.D. 2027-Jul-24 00:00:00.0000, 1.313317078877696E+08, 5.230765379278592E+08, -4.925577386070937E+06,
2461617.500000000, A.D. 2027-Jul-31 00:00:00.0000, 1.223152327253403E+08, 5.252251739279627E+08, -6.348862869249374E+06,
2461624.500000000, A.D. 2027-Aug-07 00:00:00.0000, 1.132609152153538E+08, 5.272112246961148E+08, -7.770184216745943E+06,
2461631.500000000, A.D. 2027-Aug-14 00:00:00.0000, 1.041715565066174E+08, 5.290340573041504E+08, -9.189101463773906E+06,
2461638.500000000, A.D. 2027-Aug-21 00:00:00.0000, 9.504996708162430E+07, 5.306930873848396E+08, -1.060517496681365E+07,
2461645.500000000, A.D. 2027-Aug-28 00:00:00.0000, 8.589896596948208E+07, 5.321877775427533E+08, -1.201796564317438E+07,
2461652.500000000, A.D. 2027-Sep-04 00:00:00.0000, 7.672138089978299E+07, 5.335176370444705E+08, -1.342703519102225E+07,
2461659.500000000, A.D. 2027-Sep-11 00:00:00.0000, 6.752004800246558E+07, 5.346822221260098E+08, -1.483194621620566E+07,
2461666.500000000, A.D. 2027-Sep-18 00:00:00.0000, 5.829781118659339E+07, 5.356811362667663E+08, -1.623226233143997E+07,
2461673.500000000, A.D. 2027-Sep-25 00:00:00.0000, 4.905752142665948E+07, 5.365140303523008E+08, -1.762754825542986E+07,
2461680.500000000, A.D. 2027-Oct-02 00:00:00.0000, 3.980203603131174E+07, 5.371806027537510E+08, -1.901736991681534E+07,
2461687.500000000, A.D. 2027-Oct-09 00:00:00.0000, 3.053421791687978E+07, 5.376805993196480E+08, -2.040129456561163E+07,
2461694.500000000, A.D. 2027-Oct-16 00:00:00.0000, 2.125693494882881E+07, 5.380138132255710E+08, -2.177889090263367E+07,
2461701.500000000, A.D. 2027-Oct-23 00:00:00.0000, 1.197305961094138E+07, 5.381800846763064E+08, -2.314972925137594E+07,
2461708.500000000, A.D. 2027-Oct-30 00:00:00.0000, 2.685469376852841E+06, 5.381793010714986E+08, -2.451338175700873E+07,
2461715.500000000, A.D. 2027-Nov-06 00:00:00.0000, -6.602953379122565E+06, 5.380113987637969E+08, -2.586942241381693E+07,
2461722.500000000, A.D. 2027-Nov-13 00:00:00.0000, -1.588932391656558E+07, 5.376763643327212E+08, -2.721742690872386E+07,
2461729.500000000, A.D. 2027-Nov-20 00:00:00.0000, -2.517075720773596E+07, 5.371742331872691E+08, -2.855697272544739E+07,
2461736.500000000, A.D. 2027-Nov-27 00:00:00.0000, -3.444436794373556E+07, 5.365050884629632E+08, -2.988763941543522E+07,
2461743.500000000, A.D. 2027-Dec-04 00:00:00.0000, -4.370727049094849E+07, 5.356690611281219E+08, -3.120900877545625E+07,
2461750.500000000, A.D. 2027-Dec-11 00:00:00.0000, -5.295657934786484E+07, 5.346663303349386E+08, -3.252066496006358E+07,
2461757.500000000, A.D. 2027-Dec-18 00:00:00.0000, -6.218940982724109E+07, 5.334971236758372E+08, -3.382219458171844E+07,
2461764.500000000, A.D. 2027-Dec-25 00:00:00.0000, -7.140287881158058E+07, 5.321617173426580E+08, -3.511318681255248E+07,
2461771.500000000, A.D. 2028-Jan-01 00:00:00.0000, -8.059410554051535E+07, 5.306604362029505E+08, -3.639323349020946E+07,
$$EOE